NORAD_CAT_ID,OBJECT_NAME,OBJECT_TYPE,EPOCH,MEAN_MOTION,ECCENTRICITY,INCLINATION,RA_OF_ASC_NODE,ARG_OF_PERICENTER,MEAN_ANOMALY,BSTAR,MEAN_MOTION_DOT,MEAN_MOTION_DDOT,TLE_LINE0,TLE_LINE1,TLE_LINE2,SEMIMAJOR_AXIS,PERIOD,APOGEE,PERIGEE,DECAYED
51971.0,STARLINK-3669,PAYLOAD,2023-06-14 00:04:50,15.08027288,0.0001019,53.0587,196.6151,89.1544,270.9562,3.6683e-05,2.85e-06,0.0,0 STARLINK-3669,1 51971U 22025R   23165.00336538  .00000285  00000-0  36683-4 0  9994,2 51971  53.0587 196.6151 0001019  89.1544 270.9562 15.08027288 71385,6920.366,95.489,542.936,541.525,0.0
51971.0,STARLINK-3669,PAYLOAD,2023-06-14 19:10:04,15.08027963,0.0001021,53.0585,193.0362,88.9346,271.1761,4.6553e-05,4.39e-06,0.0,0 STARLINK-3669,1 51971U 22025R   23165.79866599  .00000439  00000-0  46553-4 0  9993,2 51971  53.0585 193.0362 0001021  88.9346 271.1761 15.08027963 70392,6920.364,95.489,542.935,541.522,0.0
51971.0,STARLINK-3669,PAYLOAD,2023-06-15 01:31:49,15.08031234,0.0001069,53.0581,191.8439,86.4174,273.6938,3.2116e-05,2.14e-06,0.0,0 STARLINK-3669,1 51971U 22025R   23166.06376478  .00000214  00000-0  32116-4 0  9997,2 51971  53.0581 191.8439 0001069  86.4174 273.6938 15.08031234 71540,6920.354,95.489,542.958,541.479,0.0
51971.0,STARLINK-3669,PAYLOAD,2023-06-15 07:53:33,15.08031786,0.0001104,53.0577,190.6507,87.2368,272.8748,8.7848e-05,1.082e-05,0.0,0 STARLINK-3669,1 51971U 22025R   23166.32886226  .00001082  00000-0  87848-4 0  9999,2 51971  53.0577 190.6507 0001104  87.2368 272.8748 15.08031786 70475,6920.352,95.489,542.981,541.453,0.0
51971.0,STARLINK-3669,PAYLOAD,2023-06-16 07:45:06,15.08032328,0.0001067,53.0563,186.1763,86.1005,274.0106,5.4345e-05,5.6e-06,0.0,0 STARLINK-3669,1 51971U 22025R   23167.32298667  .00000560  00000-0  54345-4 0  9992,2 51971  53.0563 186.1763 0001067  86.1005 274.0106 15.08032328 71733,6920.35,95.489,542.954,541.477,0.0
51971.0,STARLINK-3669,PAYLOAD,2023-06-16 12:31:24,15.08035066,0.0001014,53.0554,185.2811,87.2492,272.8614,7.5865e-05,8.96e-06,0.0,0 STARLINK-3669,1 51971U 22025R   23167.52180856  .00000896  00000-0  75865-4 0  9996,2 51971  53.0554 185.2811 0001014  87.2492 272.8614 15.08035066 70653,6920.342,95.488,542.909,541.505,0.0
51971.0,STARLINK-3669,PAYLOAD,2023-06-17 10:47:31,15.08026134,0.000109,53.0547,181.1054,79.2756,280.8356,-3.6936e-05,-8.61e-06,0.0,0 STARLINK-3669,1 51971U 22025R   23168.44966652 -.00000861  00000-0 -36936-4 0  9994,2 51971  53.0547 181.1054 0001090  79.2756 280.8356 15.08026134 70790,6920.369,95.489,542.988,541.48,0.0
51971.0,STARLINK-3669,PAYLOAD,2023-06-17 12:22:57,15.08025627,0.0001068,53.0546,180.8069,80.2655,279.8455,-4.0482e-05,-9.16e-06,0.0,0 STARLINK-3669,1 51971U 22025R   23168.51594157 -.00000916  00000-0 -40482-4 0  9991,2 51971  53.0546 180.8069 0001068  80.2655 279.8455 15.08025627 71915,6920.371,95.489,542.975,541.497,0.0
51971.0,STARLINK-3669,PAYLOAD,2023-06-18 07:28:11,15.08029147,0.0001084,53.0548,177.2281,85.7515,274.3598,4.1487e-06,-2.21e-06,0.0,0 STARLINK-3669,1 51971U 22025R   23169.31123860 -.00000221  00000-0  41487-5 0  9994,2 51971  53.0548 177.2281 0001084  85.7515 274.3598 15.08029147 70925,6920.36,95.489,542.975,541.475,0.0
51971.0,STARLINK-3669,PAYLOAD,2023-06-18 17:00:47,15.08031379,0.0001092,53.0545,175.4385,85.1114,275.0001,9.28e-06,-1.41e-06,0.0,0 STARLINK-3669,1 51971U 22025R   23169.70888701 -.00000141  00000-0  92800-5 0  9995,2 51971  53.0545 175.4385 0001092  85.1114 275.0001 15.08031379 72092,6920.353,95.489,542.974,541.462,0.0
51971.0,STARLINK-3669,PAYLOAD,2023-06-19 10:30:35,15.08026603,0.0001097,53.0535,172.158,87.7035,272.408,7.8014e-05,9.29e-06,0.0,0 STARLINK-3669,1 51971U 22025R   23170.43791337  .00000929  00000-0  78014-4 0  9998,2 51971  53.0535 172.1580 0001097  87.7035 272.4080 15.08026603 71098,6920.368,95.489,542.992,541.474,0.0
51971.0,STARLINK-3669,PAYLOAD,2023-06-19 16:52:20,15.08024335,0.0001094,53.0535,170.9646,86.4818,273.6296,5.3352e-05,5.45e-06,0.0,0 STARLINK-3669,1 51971U 22025R   23170.70301625  .00000545  00000-0  53352-4 0  9997,2 51971  53.0535 170.9646 0001094  86.4818 273.6296 15.08024335 72249,6920.375,95.489,542.997,541.483,0.0
51971.0,STARLINK-3669,PAYLOAD,2023-06-20 08:46:42,15.08026205,0.0001129,53.0535,167.9816,85.0949,275.017,3.1409e-05,2.03e-06,0.0,0 STARLINK-3669,1 51971U 22025R   23171.36576741  .00000203  00000-0  31409-4 0  9993,2 51971  53.0535 167.9816 0001129  85.0949 275.0170 15.08026205 71236,6920.369,95.489,543.015,541.453,0.0
51971.0,STARLINK-3669,PAYLOAD,2023-06-20 23:05:37,15.08030186,0.0001118,53.0536,165.297,87.2403,272.8715,1.4e-05,-6.8e-07,0.0,0 STARLINK-3669,1 51971U 22025R   23171.96224069 -.00000068  00000-0  14000-4 0  9990,2 51971  53.0536 165.2970 0001118  87.2403 272.8715 15.08030186 72432,6920.357,95.489,542.995,541.448,0.0
51971.0,STARLINK-3669,PAYLOAD,2023-06-21 08:38:14,15.08029567,0.0001171,53.0538,163.5077,86.8355,273.2769,5.5253e-05,5.74e-06,0.0,0 STARLINK-3669,1 51971U 22025R   23172.35988985  .00000574  00000-0  55253-4 0  9994,2 51971  53.0538 163.5077 0001171  86.8355 273.2769 15.08029567 71381,6920.359,95.489,543.034,541.413,0.0
51971.0,STARLINK-3669,PAYLOAD,2023-06-21 16:35:25,15.08027729,0.0001175,53.0539,162.0164,87.1563,272.9561,4.2667e-05,3.78e-06,0.0,0 STARLINK-3669,1 51971U 22025R   23172.69126658  .00000378  00000-0  42667-4 0  9999,2 51971  53.0539 162.0164 0001175  87.1563 272.9561 15.08027729 71432,6920.364,95.489,543.042,541.416,0.0
51971.0,STARLINK-3669,PAYLOAD,2023-06-22 05:18:54,15.08028269,0.000114,53.0536,159.6299,88.8759,271.2362,4.5363e-05,4.2e-06,0.0,0 STARLINK-3669,1 51971U 22025R   23173.22146662  .00000420  00000-0  45363-4 0  9990,2 51971  53.0536 159.6299 0001140  88.8759 271.2362 15.08028269 72620,6920.363,95.489,543.017,541.439,0.0
51971.0,STARLINK-3669,PAYLOAD,2023-06-23 09:56:45,15.08032588,0.0001173,53.0535,154.2616,88.4744,271.638,3.6279e-05,2.79e-06,0.0,0 STARLINK-3669,1 51971U 22025R   23174.41441216  .00000279  00000-0  36279-4 0  9993,2 51971  53.0535 154.2616 0001173  88.4744 271.6380 15.08032588 72802,6920.349,95.489,543.026,541.403,0.0
51971.0,STARLINK-3669,PAYLOAD,2023-06-25 03:18:05,15.08029188,0.0001109,53.0532,146.5058,96.4761,263.6355,9.2563e-06,-1.42e-06,0.0,0 STARLINK-3669,1 51971U 22025R   23176.13756411 -.00000142  00000-0  92563-5 0  9999,2 51971  53.0532 146.5058 0001109  96.4761 263.6355 15.08029188 73064,6920.36,95.489,542.992,541.457,0.0
51971.0,STARLINK-3669,PAYLOAD,2023-06-26 06:20:30,15.08022691,0.0001085,53.0526,141.4349,87.5649,272.5465,-1.3173e-05,-4.91e-06,0.0,0 STARLINK-3669,1 51971U 22025R   23177.26424536 -.00000491  00000-0 -13173-4 0  9991,2 51971  53.0526 141.4349 0001085  87.5649 272.5465 15.08022691 73235,6920.38,95.489,542.996,541.494,0.0
51971.0,STARLINK-3669,PAYLOAD,2023-06-27 07:47:28,15.08033643,0.0001134,53.0527,136.6625,89.9135,270.1985,7.6e-05,8.98e-06,0.0,0 STARLINK-3669,1 51971U 22025R   23178.32463808  .00000898  00000-0  76000-4 0  9991,2 51971  53.0527 136.6625 0001134  89.9135 270.1985 15.08033643 73397,6920.346,95.489,542.996,541.426,0.0
51971.0,STARLINK-3669,PAYLOAD,2023-06-28 02:52:43,15.08023047,0.000118,53.0532,133.0837,89.7935,270.319,7.0316e-05,8.09e-06,0.0,0 STARLINK-3669,1 51971U 22025R   23179.11994473  .00000809  00000-0  70316-4 0  9992,2 51971  53.0532 133.0837 0001180  89.7935 270.3190 15.08023047 73517,6920.379,95.489,543.06,541.427,0.0
51971.0,STARLINK-3669,PAYLOAD,2023-06-29 04:19:41,15.08033966,0.0001209,53.0531,128.3109,88.2649,271.8479,3.002e-05,1.82e-06,0.0,0 STARLINK-3669,1 51971U 22025R   23180.18034130  .00000182  00000-0  30020-4 0  9998,2 51971  53.0531 128.3109 0001209  88.2649 271.8479 15.08033966 73677,6920.345,95.489,543.047,541.374,0.0
51971.0,STARLINK-3669,PAYLOAD,2023-07-02 02:18:52,15.08026727,0.0001239,53.0532,115.185,90.4427,269.6705,9.1161e-06,-1.44e-06,0.0,0 STARLINK-3669,1 51971U 22025R   23183.09644207 -.00000144  00000-0  91161-5 0  9996,2 51971  53.0532 115.1850 0001239  90.4427 269.6705 15.08026727 74111,6920.367,95.489,543.09,541.375,0.0
51971.0,STARLINK-3669,PAYLOAD,2023-07-03 11:43:01,15.08029198,0.0001262,53.0538,108.9211,88.7235,271.3899,3.4256e-06,-2.33e-06,0.0,0 STARLINK-3669,1 51971U 22025R   23184.48821739 -.00000233  00000-0  34256-5 0  9998,2 51971  53.0538 108.9211 0001262  88.7235 271.3899 15.08029198 74323,6920.36,95.489,543.098,541.351,0.0
51971.0,STARLINK-3669,PAYLOAD,2023-07-04 05:12:50,15.08023712,0.0001181,53.0528,105.6413,90.539,269.5735,1.2455e-05,-9.2e-07,0.0,0 STARLINK-3669,1 51971U 22025R   23185.21724647 -.00000092  00000-0  12455-4 0  9999,2 51971  53.0528 105.6413 0001181  90.5390 269.5735 15.08023712 74439,6920.377,95.489,543.059,541.424,0.0
51971.0,STARLINK-3669,PAYLOAD,2023-07-05 03:28:55,15.08034019,0.0001154,53.0527,101.4655,88.1881,271.9241,-1.1937e-05,-4.72e-06,0.0,0 STARLINK-3669,1 51971U 22025R   23186.14509250 -.00000472  00000-0 -11937-4 0  9990,2 51971  53.0527 101.4655 0001154  88.1881 271.9241 15.08034019 74574,6920.345,95.489,543.009,541.411,0.0
51971.0,STARLINK-3669,PAYLOAD,2023-07-06 11:17:39,15.08028167,0.0001335,53.053,95.4998,92.9146,267.1997,4.2236e-05,3.72e-06,0.0,0 STARLINK-3669,1 51971U 22025R   23187.47059543  .00000372  00000-0  42236-4 0  9995,2 51971  53.0530  95.4998 0001335  92.9146 267.1997 15.08028167 74772,6920.363,95.489,543.152,541.304,0.0
51971.0,STARLINK-3669,PAYLOAD,2023-07-07 00:01:08,15.08033753,0.0001283,53.0527,93.1131,93.7699,266.3438,6.3166e-05,6.98e-06,0.0,0 STARLINK-3669,1 51971U 22025R   23188.00079021  .00000698  00000-0  63166-4 0  9994,2 51971  53.0527  93.1131 0001283  93.7699 266.3438 15.08033753 74853,6920.346,95.489,543.099,541.323,0.0
51971.0,STARLINK-3669,PAYLOAD,2023-07-08 03:03:32,15.08035832,0.0001205,53.0527,88.0416,94.7248,265.388,4.709e-05,4.47e-06,0.0,0 STARLINK-3669,1 51971U 22025R   23189.12746302  .00000447  00000-0  47090-4 0  9991,2 51971  53.0527  88.0416 0001205  94.7248 265.3880 15.08035832 75027,6920.34,95.488,543.038,541.371,0.0
